[{"OBJECT_NAME":"VSP ROSE","OBJECT_ID":"2024-043AC","EPOCH":"2026-03-09T21:48:06.922944","MEAN_MOTION":15.27746075,"ECCENTRICITY":0.00099339,"INCLINATION":97.5443,"RA_OF_ASC_NODE":203.927,"ARG_OF_PERICENTER":232.2702,"MEAN_ANOMALY":127.7637,"EPHEMERIS_TYPE":0,"CLASSIFICATION_TYPE":"U","NORAD_CAT_ID":59124,"ELEMENT_SET_NO":999,"REV_AT_EPOCH":11182,"BSTAR":0.00025731354,"MEAN_MOTION_DOT":6.907e-5,"MEAN_MOTION_DDOT":0},{"OBJECT_NAME":"STARLINK-33886","OBJECT_ID":"2025-085T","EPOCH":"2026-03-09T06:48:49.690080","MEAN_MOTION":15.27564387,"ECCENTRICITY":0.00013958,"INCLINATION":43.0039,"RA_OF_ASC_NODE":32.7072,"ARG_OF_PERICENTER":276.5494,"MEAN_ANOMALY":83.5198,"EPHEMERIS_TYPE":0,"CLASSIFICATION_TYPE":"U","NORAD_CAT_ID":63681,"ELEMENT_SET_NO":999,"REV_AT_EPOCH":4881,"BSTAR":0.00074586508,"MEAN_MOTION_DOT":0.00020309,"MEAN_MOTION_DDOT":0}]
